NOAA 18
1 28654U 05018A   21304.15460738  .00000129  00000-0  94186-4 0  9997
2 28654  98.9797   9.4634 0013359 257.9974 101.9701 14.12651967847691
NOAA 15
1 25338U 98030A   21304.13264135  .00000083  00000-0  53225-4 0  9998
2 25338  98.6712 331.3735 0009463 242.8946 117.1269 14.26066530220585